NORAD_CAT_ID,OBJECT_NAME,OBJECT_TYPE,EPOCH,MEAN_MOTION,ECCENTRICITY,INCLINATION,RA_OF_ASC_NODE,ARG_OF_PERICENTER,MEAN_ANOMALY,BSTAR,MEAN_MOTION_DOT,MEAN_MOTION_DDOT,TLE_LINE0,TLE_LINE1,TLE_LINE2,SEMIMAJOR_AXIS,PERIOD,APOGEE,PERIGEE,DECAYED
54758.0,STARLINK-5464,PAYLOAD,2023-11-18 22:59:27,15.0884198,0.000153,53.2172,217.9956,96.124,263.9926,8.5599e-05,1.075e-05,0.0,0 STARLINK-5464,1 54758U 22175A   23322.95796170  .00001075  00000-0  85599-4 0  9995,2 54758  53.2172 217.9956 0001530  96.1240 263.9926 15.08841980 52919,6917.874,95.437,540.798,538.681,0.0
54758.0,STARLINK-5464,PAYLOAD,2023-11-19 00:34:50,15.08842865,0.0001519,53.2173,217.6982,95.5955,264.521,9.0704e-05,1.156e-05,0.0,0 STARLINK-5464,1 54758U 22175A   23323.02420089  .00001156  00000-0  90704-4 0  9991,2 54758  53.2173 217.6982 0001519  95.5955 264.5210 15.08842865 52926,6917.872,95.437,540.787,538.686,0.0
54758.0,STARLINK-5464,PAYLOAD,2023-11-19 16:28:42,15.08839862,0.0001538,53.2176,214.7257,97.9697,262.147,0.00014178,1.969e-05,0.0,0 STARLINK-5464,1 54758U 22175A   23323.68660238  .00001969  00000-0  14178-3 0  9997,2 54758  53.2176 214.7257 0001538  97.9697 262.1470 15.08839862 49585,6917.881,95.438,540.81,538.682,0.0
54758.0,STARLINK-5464,PAYLOAD,2023-11-19 21:14:52,15.08836444,0.0001416,53.2169,213.8321,93.6533,266.4621,0.0001428,1.985e-05,0.0,0 STARLINK-5464,1 54758U 22175A   23323.88532453  .00001985  00000-0  14280-3 0  9998,2 54758  53.2169 213.8321 0001416  93.6533 266.4621 15.08836444 53051,6917.891,95.438,540.736,538.777,0.0
54758.0,STARLINK-5464,PAYLOAD,2023-11-20 09:57:57,15.0884126,0.0001548,53.2174,211.4525,86.6812,273.4357,3.6271e-05,2.89e-06,0.0,0 STARLINK-5464,1 54758U 22175A   23324.41524547  .00000289  00000-0  36271-4 0  9994,2 54758  53.2174 211.4525 0001548  86.6812 273.4357 15.08841260 53130,6917.877,95.437,540.812,538.671,0.0
54758.0,STARLINK-5464,PAYLOAD,2023-11-20 16:19:29,15.08840886,0.0001584,53.2171,210.2636,85.6704,274.4469,1.8873e-05,1.2e-07,0.0,0 STARLINK-5464,1 54758U 22175A   23324.68020678  .00000012  00000-0  18873-4 0  9991,2 54758  53.2171 210.2636 0001584  85.6704 274.4469 15.08840886 49735,6917.878,95.437,540.838,538.647,0.0
54758.0,STARLINK-5464,PAYLOAD,2023-11-20 22:41:02,15.08841362,0.0001497,53.2169,209.0742,90.1005,270.0159,9.1109e-05,1.162e-05,0.0,0 STARLINK-5464,1 54758U 22175A   23324.94516292  .00001162  00000-0  91109-4 0  9992,2 54758  53.2169 209.0742 0001497  90.1005 270.0159 15.08841362 53210,6917.876,95.437,540.777,538.706,0.0
54758.0,STARLINK-5464,PAYLOAD,2023-11-21 01:51:48,15.08846065,0.0001492,53.2169,208.4792,88.7882,271.3281,7.0993e-05,8.42e-06,0.0,0 STARLINK-5464,1 54758U 22175A   23325.07764040  .00000842  00000-0  70993-4 0  9995,2 54758  53.2169 208.4792 0001492  88.7882 271.3281 15.08846065 49792,6917.862,95.437,540.759,538.695,0.0
54758.0,STARLINK-5464,PAYLOAD,2023-11-21 20:56:25,15.08844361,0.0001407,53.2169,204.9098,93.077,267.0383,2.889e-05,1.72e-06,0.0,0 STARLINK-5464,1 54758U 22175A   23325.87252230  .00000172  00000-0  28890-4 0  9991,2 54758  53.2169 204.9098 0001407  93.0770 267.0383 15.08844361 53352,6917.867,95.437,540.705,538.759,0.0
54758.0,STARLINK-5464,PAYLOAD,2023-11-22 01:42:34,15.08850999,0.000144,53.2168,204.0172,92.9246,267.1911,8.0305e-05,9.91e-06,0.0,0 STARLINK-5464,1 54758U 22175A   23326.07123633  .00000991  00000-0  80305-4 0  9996,2 54758  53.2168 204.0172 0001440  92.9246 267.1911 15.08850999 53383,6917.847,95.437,540.708,538.716,0.0
54758.0,STARLINK-5464,PAYLOAD,2023-11-22 19:11:49,15.08843106,0.0001264,53.217,200.7451,97.4203,262.6932,0.00016821,2.39e-05,0.0,0 STARLINK-5464,1 54758U 22175A   23326.79987687  .00002390  00000-0  16821-3 0  9998,2 54758  53.2170 200.7451 0001264  97.4203 262.6932 15.08843106 50052,6917.871,95.437,540.61,538.861,0.0
54758.0,STARLINK-5464,PAYLOAD,2023-11-22 20:47:12,15.08851045,0.0001548,53.2163,200.4479,93.3301,266.7868,6.6187e-05,7.66e-06,0.0,0 STARLINK-5464,1 54758U 22175A   23326.86611596  .00000766  00000-0  66187-4 0  9995,2 54758  53.2163 200.4479 0001548  93.3301 266.7868 15.08851045 53507,6917.847,95.437,540.783,538.641,0.0
54758.0,STARLINK-5464,PAYLOAD,2023-11-22 22:22:35,15.08850703,0.0001363,53.2172,200.1501,100.2108,259.9038,0.0001271,1.736e-05,0.0,0 STARLINK-5464,1 54758U 22175A   23326.93235338  .00001736  00000-0  12710-3 0  9999,2 54758  53.2172 200.1501 0001363 100.2108 259.9038 15.08850703 53512,6917.848,95.437,540.656,538.77,0.0
54758.0,STARLINK-5464,PAYLOAD,2023-11-23 19:02:37,15.08830001,0.0001427,53.2163,196.283,88.3391,271.7765,-0.00013235,-2.393e-05,0.0,0 STARLINK-5464,1 54758U 22175A   23327.79348891 -.00002393  00000-0 -13235-3 0  9998,2 54758  53.2163 196.2830 0001427  88.3391 271.7765 15.08830001 50204,6917.911,95.438,540.763,538.789,0.0
54758.0,STARLINK-5464,PAYLOAD,2023-11-23 22:13:24,15.08829622,0.0001399,53.2166,195.6886,87.1333,272.982,-8.0382e-05,-1.567e-05,0.0,0 STARLINK-5464,1 54758U 22175A   23327.92597469 -.00001567  00000-0 -80382-4 0  9990,2 54758  53.2166 195.6886 0001399  87.1333 272.9820 15.08829622 53667,6917.912,95.438,540.745,538.809,0.0
54758.0,STARLINK-5464,PAYLOAD,2023-11-24 01:24:10,15.08827755,0.0001406,53.2167,195.0956,89.4921,270.6233,-0.00010736,-1.996e-05,0.0,0 STARLINK-5464,1 54758U 22175A   23328.05845738 -.00001996  00000-0 -10736-3 0  9991,2 54758  53.2167 195.0956 0001406  89.4921 270.6233 15.08827755 53687,6917.918,95.438,540.755,538.81,0.0
54758.0,STARLINK-5464,PAYLOAD,2023-11-24 18:53:24,15.08843234,0.000131,53.2168,191.8275,85.836,274.2782,6.186e-06,-1.89e-06,0.0,0 STARLINK-5464,1 54758U 22175A   23328.78708756 -.00000189  00000-0  61860-5 0  9997,2 54758  53.2168 191.8275 0001310  85.8360 274.2782 15.08843234 50357,6917.871,95.437,540.642,538.829,0.0
54758.0,STARLINK-5464,PAYLOAD,2023-11-24 20:28:47,15.08847439,0.0001273,53.2164,191.53,87.9351,272.1787,2.5011e-06,-2.48e-06,0.0,0 STARLINK-5464,1 54758U 22175A   23328.85332503 -.00000248  00000-0  25011-5 0  9992,2 54758  53.2164 191.5300 0001273  87.9351 272.1787 15.08847439 53806,6917.858,95.437,540.603,538.842,0.0
54758.0,STARLINK-5464,PAYLOAD,2023-11-25 01:14:56,15.08849103,0.0001491,53.2166,190.6367,105.9416,254.1741,0.00010249,1.344e-05,0.0,0 STARLINK-5464,1 54758U 22175A   23329.05204083  .00001344  00000-0  10249-3 0  9998,2 54758  53.2166 190.6367 0001491 105.9416 254.1741 15.08849103 53839,6917.853,95.437,540.749,538.686,0.0
54758.0,STARLINK-5464,PAYLOAD,2023-11-25 20:19:34,15.08847779,0.000149,53.2157,187.0658,97.9119,262.2042,0.0003368,5.077e-05,0.0,0 STARLINK-5464,1 54758U 22175A   23329.84692609  .00005077  00000-0  33680-3 0  9991,2 54758  53.2157 187.0658 0001490  97.9119 262.2042 15.08847779 53955,6917.857,95.437,540.752,538.691,0.0
54758.0,STARLINK-5464,PAYLOAD,2023-11-26 01:05:43,15.08853917,0.000151,53.2158,186.1729,96.122,263.9944,0.00039557,6.015e-05,0.0,0 STARLINK-5464,1 54758U 22175A   23330.04564239  .00006015  00000-0  39557-3 0  9994,2 54758  53.2158 186.1729 0001510  96.1220 263.9944 15.08853917 50544,6917.838,95.437,540.747,538.658,0.0
54758.0,STARLINK-5464,PAYLOAD,2023-11-26 20:10:21,15.08843501,0.0002023,53.2153,182.5997,137.0546,223.0604,-2.5697e-05,-6.97e-06,0.0,0 STARLINK-5464,1 54758U 22175A   23330.84052262 -.00000697  00000-0 -25697-4 0  9993,2 54758  53.2153 182.5997 0002023 137.0546 223.0604 15.08843501 50663,6917.87,95.437,541.134,538.335,0.0
54758.0,STARLINK-5464,PAYLOAD,2023-11-26 21:45:44,15.08838989,0.0001442,53.216,182.3082,88.5573,271.5585,-4.5214e-05,-1.007e-05,0.0,0 STARLINK-5464,1 54758U 22175A   23330.90676815 -.00001007  00000-0 -45214-4 0  9999,2 54758  53.2160 182.3082 0001442  88.5573 271.5585 15.08838989 54112,6917.883,95.438,540.746,538.751,0.0
54758.0,STARLINK-5464,PAYLOAD,2023-11-26 23:21:07,15.08837506,0.0001462,53.216,182.0111,82.9545,277.1614,-6.457e-05,-1.315e-05,0.0,0 STARLINK-5464,1 54758U 22175A   23330.97300925 -.00001315  00000-0 -64570-4 0  9990,2 54758  53.2160 182.0111 0001462  82.9545 277.1614 15.08837506 54121,6917.888,95.438,540.764,538.742,0.0
54758.0,STARLINK-5464,PAYLOAD,2023-11-27 20:01:08,15.08839671,0.0001387,53.2149,178.1484,81.7971,278.3179,-3.5952e-05,-8.6e-06,0.0,0 STARLINK-5464,1 54758U 22175A   23331.83413045 -.00000860  00000-0 -35952-4 0  9990,2 54758  53.2149 178.1484 0001387  81.7971 278.3179 15.08839671 50819,6917.881,95.438,540.706,538.787,0.0
54758.0,STARLINK-5464,PAYLOAD,2023-11-27 21:36:31,15.0884132,0.000141,53.2151,177.8506,80.8393,279.2758,-5.3917e-06,-3.74e-06,0.0,0 STARLINK-5464,1 54758U 22175A   23331.90036980 -.00000374  00000-0 -53917-5 0  9999,2 54758  53.2151 177.8506 0001410  80.8393 279.2758 15.08841320 54268,6917.876,95.437,540.717,538.766,0.0
54758.0,STARLINK-5464,PAYLOAD,2023-11-28 13:30:23,15.0883588,0.0001421,53.2147,174.8775,80.1779,279.9373,0.00013363,1.839e-05,0.0,0 STARLINK-5464,1 54758U 22175A   23332.56277517  .00001839  00000-0  13363-3 0  9999,2 54758  53.2147 174.8775 0001421  80.1779 279.9373 15.08835880 54366,6917.893,95.438,540.741,538.775,0.0
54758.0,STARLINK-5464,PAYLOAD,2023-11-28 19:51:56,15.08837921,0.0001349,53.2146,173.6882,83.3086,276.806,0.00016735,2.376e-05,0.0,0 STARLINK-5464,1 54758U 22175A   23332.82773486  .00002376  00000-0  16735-3 0  9997,2 54758  53.2146 173.6882 0001349  83.3086 276.8060 15.08837921 54408,6917.887,95.438,540.685,538.819,0.0
54758.0,STARLINK-5464,PAYLOAD,2023-11-28 23:02:42,15.08840823,0.0001381,53.2148,173.093,81.2604,278.8544,0.00018419,2.645e-05,0.0,0 STARLINK-5464,1 54758U 22175A   23332.96021368  .00002645  00000-0  18419-3 0  9997,2 54758  53.2148 173.0930 0001381  81.2604 278.8544 15.08840823 50980,6917.878,95.438,540.698,538.788,0.0
54758.0,STARLINK-5464,PAYLOAD,2023-11-29 13:21:10,15.08841802,0.0001354,53.2146,170.4164,86.9549,273.1598,0.00014023,1.945e-05,0.0,0 STARLINK-5464,1 54758U 22175A   23333.55637441  .00001945  00000-0  14023-3 0  9997,2 54758  53.2146 170.4164 0001354  86.9549 273.1598 15.08841802 54516,6917.875,95.437,540.677,538.803,0.0
